{
  "type": "FeatureCollection",
  "features": [
    {
      "type": "Feature",
      "properties": {
        "norad_id": 31841,
        "name": "FENGYUN 1C DEB",
        "group": "fengyun-1c-debris",
        "lat": 11.619331235790069,
        "lon": 166.68188401352307,
        "alt_km": 937.639945485399,
        "timestamp": "2025-12-26T16:33:55.854994+00:00",
        "meta_object_name": "FENGYUN 1C DEB",
        "meta_object_id": "1999-025CJF",
        "meta_epoch": "2025-12-20T17:06:06.055776",
        "meta_mean_motion": 14.03626742,
        "meta_eccentricity": 0.03086895,
        "meta_inclination": 98.4167,
        "meta_ra_of_asc_node": 162.8817,
        "meta_arg_of_pericenter": 282.8098,
        "meta_mean_anomaly": 136.7596,
        "meta_ephemeris_type": 0,
        "meta_classification_type": "U",
        "meta_norad_cat_id": 31841,
        "meta_element_set_no": 999,
        "meta_rev_at_epoch": 59451,
        "meta_bstar": 0.0011379131,
        "meta_mean_motion_dot": 2.684e-05,
        "meta_mean_motion_ddot": 0,
        "tle_line1": "1 31841U 99025CJF 25354.71257009  .00002684  00000+0  11379-2 0  9994",
        "tle_line2": "2 31841  98.4167 162.8817 0308689 282.8098 136.7596 14.03626742594514"
      },
      "geometry": {
        "type": "Point",
        "coordinates": [
          166.68188401352307,
          11.619331235790069
        ]
      }
    },
    {
      "type": "Feature",
      "properties": {
        "norad_id": 31843,
        "name": "FENGYUN 1C DEB",
        "group": "fengyun-1c-debris",
        "lat": -62.87299869346806,
        "lon": -41.19531296412212,
        "alt_km": 695.4648946828138,
        "timestamp": "2025-12-26T16:33:55.855004+00:00",
        "meta_object_name": "FENGYUN 1C DEB",
        "meta_object_id": "1999-025CJH",
        "meta_epoch": "2025-12-24T01:51:32.353920",
        "meta_mean_motion": 13.34098922,
        "meta_eccentricity": 0.0638989,
        "meta_inclination": 99.2841,
        "meta_ra_of_asc_node": 297.7981,
        "meta_arg_of_pericenter": 326.1893,
        "meta_mean_anomaly": 29.9986,
        "meta_ephemeris_type": 0,
        "meta_classification_type": "U",
        "meta_norad_cat_id": 31843,
        "meta_element_set_no": 999,
        "meta_rev_at_epoch": 64847,
        "meta_bstar": 0.0068044238,
        "meta_mean_motion_dot": 0.00010896,
        "meta_mean_motion_ddot": 0,
        "tle_line1": "1 31843U 99025CJH 25358.07745780  .00010896  00000+0  68044-2 0  9992",
        "tle_line2": "2 31843  99.2841 297.7981 0638989 326.1893  29.9986 13.34098922648475"
      },
      "geometry": {
        "type": "Point",
        "coordinates": [
          -41.19531296412212,
          -62.87299869346806
        ]
      }
    },
    {
      "type": "Feature",
      "properties": {
        "norad_id": 31844,
        "name": "FENGYUN 1C DEB",
        "group": "fengyun-1c-debris",
        "lat": 24.4927539649778,
        "lon": -13.13499811311578,
        "alt_km": 801.7701951646932,
        "timestamp": "2025-12-26T16:33:55.855013+00:00",
        "meta_object_name": "FENGYUN 1C DEB",
        "meta_object_id": "1999-025CJJ",
        "meta_epoch": "2025-12-24T05:15:19.053792",
        "meta_mean_motion": 14.19795116,
        "meta_eccentricity": 0.0103164,
        "meta_inclination": 100.3026,
        "meta_ra_of_asc_node": 348.7464,
        "meta_arg_of_pericenter": 319.6225,
        "meta_mean_anomaly": 39.732,
        "meta_ephemeris_type": 0,
        "meta_classification_type": "U",
        "meta_norad_cat_id": 31844,
        "meta_element_set_no": 999,
        "meta_rev_at_epoch": 95495,
        "meta_bstar": 0.00094874151,
        "meta_mean_motion_dot": 2.063e-05,
        "meta_mean_motion_ddot": 0,
        "tle_line1": "1 31844U 99025CJJ 25358.21897053  .00002063  00000+0  94874-3 0  9998",
        "tle_line2": "2 31844 100.3026 348.7464 0103164 319.6225  39.7320 14.19795116954953"
      },
      "geometry": {
        "type": "Point",
        "coordinates": [
          -13.13499811311578,
          24.4927539649778
        ]
      }
    },
    {
      "type": "Feature",
      "properties": {
        "norad_id": 31850,
        "name": "FENGYUN 1C DEB",
        "group": "fengyun-1c-debris",
        "lat": -54.38732566480069,
        "lon": -144.65610701121892,
        "alt_km": 513.0647773522087,
        "timestamp": "2025-12-26T16:33:55.855022+00:00",
        "meta_object_name": "FENGYUN 1C DEB",
        "meta_object_id": "1999-025CJQ",
        "meta_epoch": "2025-12-14T09:23:04.476192",
        "meta_mean_motion": 15.33433546,
        "meta_eccentricity": 0.00762245,
        "meta_inclination": 98.5734,
        "meta_ra_of_asc_node": 33.2199,
        "meta_arg_of_pericenter": 83.7911,
        "meta_mean_anomaly": 277.2005,
        "meta_ephemeris_type": 0,
        "meta_classification_type": "U",
        "meta_norad_cat_id": 31850,
        "meta_element_set_no": 999,
        "meta_rev_at_epoch": 65854,
        "meta_bstar": 0.0030655456,
        "meta_mean_motion_dot": 0.00109983,
        "meta_mean_motion_ddot": 0,
        "tle_line1": "1 31850U 99025CJQ 25348.39102403  .00109983  00000+0  30655-2 0  9996",
        "tle_line2": "2 31850  98.5734  33.2199 0076224  83.7911 277.2005 15.33433546658540"
      },
      "geometry": {
        "type": "Point",
        "coordinates": [
          -144.65610701121892,
          -54.38732566480069
        ]
      }
    },
    {
      "type": "Feature",
      "properties": {
        "norad_id": 31854,
        "name": "FENGYUN 1C DEB",
        "group": "fengyun-1c-debris",
        "lat": -34.659558769256925,
        "lon": 177.31956208943035,
        "alt_km": 909.1320977785144,
        "timestamp": "2025-12-26T16:33:55.855032+00:00",
        "meta_object_name": "FENGYUN 1C DEB",
        "meta_object_id": "1999-025CJU",
        "meta_epoch": "2025-12-26T06:59:38.548896",
        "meta_mean_motion": 14.03097648,
        "meta_eccentricity": 0.00724487,
        "meta_inclination": 98.8487,
        "meta_ra_of_asc_node": 3.1147,
        "meta_arg_of_pericenter": 103.5638,
        "meta_mean_anomaly": 257.3612,
        "meta_ephemeris_type": 0,
        "meta_classification_type": "U",
        "meta_norad_cat_id": 31854,
        "meta_element_set_no": 999,
        "meta_rev_at_epoch": 69462,
        "meta_bstar": 0.00052923905,
        "meta_mean_motion_dot": 8e-06,
        "meta_mean_motion_ddot": 0,
        "tle_line1": "1 31854U 99025CJU 25360.29141839  .00000800  00000+0  52924-3 0  9991",
        "tle_line2": "2 31854  98.8487   3.1147 0072448 103.5638 257.3612 14.03097648694629"
      },
      "geometry": {
        "type": "Point",
        "coordinates": [
          177.31956208943035,
          -34.659558769256925
        ]
      }
    },
    {
      "type": "Feature",
      "properties": {
        "norad_id": 31857,
        "name": "FENGYUN 1C DEB",
        "group": "fengyun-1c-debris",
        "lat": 70.93258166195744,
        "lon": 6.903037792174152,
        "alt_km": 1248.2744628381552,
        "timestamp": "2025-12-26T16:33:55.855043+00:00",
        "meta_object_name": "FENGYUN 1C DEB",
        "meta_object_id": "1999-025CJX",
        "meta_epoch": "2025-12-21T19:49:30.664704",
        "meta_mean_motion": 13.61956441,
        "meta_eccentricity": 0.03096802,
        "meta_inclination": 96.1878,
        "meta_ra_of_asc_node": 22.0982,
        "meta_arg_of_pericenter": 256.7702,
        "meta_mean_anomaly": 99.8737,
        "meta_ephemeris_type": 0,
        "meta_classification_type": "U",
        "meta_norad_cat_id": 31857,
        "meta_element_set_no": 999,
        "meta_rev_at_epoch": 61753,
        "meta_bstar": 0.0014310612,
        "meta_mean_motion_dot": 1.495e-05,
        "meta_mean_motion_ddot": 0,
        "tle_line1": "1 31857U 99025CJX 25355.82604936  .00001495  00000+0  14311-2 0  9997",
        "tle_line2": "2 31857  96.1878  22.0982 0309680 256.7702  99.8737 13.61956441617538"
      },
      "geometry": {
        "type": "Point",
        "coordinates": [
          6.903037792174152,
          70.93258166195744
        ]
      }
    },
    {
      "type": "Feature",
      "properties": {
        "norad_id": 31861,
        "name": "FENGYUN 1C DEB",
        "group": "fengyun-1c-debris",
        "lat": -76.8724224339031,
        "lon": -53.72798719959733,
        "alt_km": 1139.90398508027,
        "timestamp": "2025-12-26T16:33:55.855054+00:00",
        "meta_object_name": "FENGYUN 1C DEB",
        "meta_object_id": "1999-025CKB",
        "meta_epoch": "2025-12-22T08:23:07.626048",
        "meta_mean_motion": 13.30350862,
        "meta_eccentricity": 0.04925861,
        "meta_inclination": 102.3403,
        "meta_ra_of_asc_node": 190.8894,
        "meta_arg_of_pericenter": 184.0314,
        "meta_mean_anomaly": 175.6758,
        "meta_ephemeris_type": 0,
        "meta_classification_type": "U",
        "meta_norad_cat_id": 31861,
        "meta_element_set_no": 999,
        "meta_rev_at_epoch": 66895,
        "meta_bstar": 0.0023684948,
        "meta_mean_motion_dot": 2.121e-05,
        "meta_mean_motion_ddot": 0,
        "tle_line1": "1 31861U 99025CKB 25356.34939382  .00002121  00000+0  23685-2 0  9997",
        "tle_line2": "2 31861 102.3403 190.8894 0492586 184.0314 175.6758 13.30350862668952"
      },
      "geometry": {
        "type": "Point",
        "coordinates": [
          -53.72798719959733,
          -76.8724224339031
        ]
      }
    }
  ]
}